MALLIGYONG-1            
1 58400U 23179A   24086.14868129  .00014533  00000+0  64546-3 0  9991
2 58400  97.4155 334.2396 0009389 182.4995 177.6195 15.21609152 19094
